2024-043BB              
1 59147U 24043BB  24093.90045132  .00010547  00000+0  51543-3 0  9998
2 59147  97.4607 218.7881 0010747 169.8938 190.2515 15.18371976  4385
HAMMER                  
1 59148U 24043BC  24093.76912720  .00019632  00000+0  95636-3 0  9994
2 59148  97.4664 218.6770 0011490 167.4221 192.7302 15.18331298  4362
STARLINK-31312          
1 59152U 24044A   24094.25001157 -.00865178  00000+0 -22009-1 0  9996
2 59152  43.0006 121.2152 0001490 280.9305 300.7460 15.41296076  5772
STARLINK-31308          
1 59153U 24044B   24093.79510380 -.00013041  00000+0 -30585-3 0  9992
2 59153  43.0008 127.0401 0001806 244.8904 115.1765 15.40660530  5721
STARLINK-31270          
1 59154U 24044C   24094.07779869  .00005215  00000+0  20904-3 0  9990
2 59154  43.0017 126.6041 0002033 282.9776  77.0848 15.25914257  5752
STARLINK-31341          
1 59155U 24044D   24094.12303536  .00000686  00000+0  36058-4 0  9996
2 59155  42.9992 126.9455 0001089 271.3122  88.7604 15.25894279  5695
STARLINK-31338          
1 59156U 24044E   24093.79347905  .00004452  00000+0  17988-3 0  9992
2 59156  42.9996 128.7733 0000288 307.9602  52.1223 15.25915637  5669
STARLINK-31334          
1 59157U 24044F   24093.79121561 -.00001061  00000+0 -30745-4 0  9993
2 59157  43.0013 128.7568 0000332 272.4206  87.6607 15.25916345  5660
STARLINK-31297          
1 59158U 24044G   24093.91668981  .00050945  00000+0  19461-2 0  9993
2 59158  43.0003 127.4785 0000586 297.9568 268.4473 15.25873528  5824
STARLINK-31182          
1 59159U 24044H   24093.78669096  .00002103  00000+0  90213-4 0  9996
2 59159  43.0002 128.7230 0001103 294.0364  66.0372 15.25903739  5694
STARLINK-31327          
1 59160U 24044J   24093.91668981  .00052915  00000+0  20199-2 0  9995
2 59160  43.0001 127.4477 0001118 268.5908 310.3562 15.25882182  5829
STARLINK-31256          
1 59161U 24044K   24094.10947327 -.00000746  00000+0 -18699-4 0  9993
2 59161  42.9997 126.8448 0000404 264.8580  95.2225 15.25895307  5744
STARLINK-31272          
1 59162U 24044L   24093.77991513 -.00000128  00000+0  49390-5 0  9998
2 59162  43.0002 128.6680 0000914 275.7723  84.3024 15.25908356  5664
STARLINK-31278          
1 59163U 24044M   24094.10493887 -.00001682  00000+0 -54495-4 0  9996
2 59163  43.0001 126.8095 0000796 226.6940 133.3845 15.25903535  5691
STARLINK-31309          
1 59164U 24044N   24094.23355579 -.00007613  00000+0 -28133-3 0  9995
2 59164  43.0015 126.0533 0001299 251.7527 108.3183 15.25929368  5773
STARLINK-31325          
1 59165U 24044P   24094.10041593 -.00000327  00000+0 -26694-5 0  9997
2 59165  42.9999 126.7737 0000778 273.0033  87.0729 15.25904784  5499
STARLINK-31342          
1 59166U 24044Q   24094.16361462 -.00000862  00000+0 -23122-4 0  9990
2 59166  43.0005 126.3875 0000839 292.1645  67.9117 15.25903272  5756
STARLINK-31298          
1 59167U 24044R   24093.50676521 -.00008112  00000+0 -30072-3 0  9990
2 59167  43.0005 130.0561 0001218 272.5140  87.5572 15.25895942  5392
STARLINK-31322          
1 59168U 24044S   24094.25001157 -.00007417  00000+0 -27391-3 0  9998
2 59168  42.9995 125.4455 0001286 268.7045  35.0281 15.25917489  5784
STARLINK-31329          
1 59169U 24044T   24093.91668981  .00058288  00000+0  22213-2 0  9992
2 59169  42.9999 127.3849 0001363 257.5372 346.2264 15.25898484  5615
STARLINK-31340          
1 59170U 24044U   24094.15457075 -.00000811  00000+0 -21201-4 0  9990
2 59170  43.0014 126.3148 0000626 240.5089 119.5699 15.25899434  5604
STARLINK-31344          
1 59171U 24044V   24093.91668981  .00052689  00000+0  20098-2 0  9993
2 59171  42.9997 127.3552 0000869 269.0185 347.1801 15.25908136  5823
STARLINK-31348          
1 59172U 24044W   24093.38104056 -.00001589  00000+0 -22709-4 0  9991
2 59172  42.9996 129.0883 0000672 215.4151 144.6664 15.48902784  5622
STARLINK-31289          
1 59173U 24044X   24093.91668981  .00048143  00000+0  18403-2 0  9992
2 59173  43.0010 127.5660 0001371 274.5448 254.6477 15.25873612  5828
STARLINK-31283          
1 59174U 24044Y   24091.25111129  .00024284  00000+0  58675-3 0  9991
2 59174  42.9997 141.4854 0001735 267.1569  92.9088 15.40699718  5334
EXO-0                   
1 59175U 23174DK  24093.76361403  .00008110  00000+0  43044-3 0  9999
2 59175  97.4612 169.2618 0014276 126.6359 233.6189 15.15506452 22250
STARLINK-31439          
1 59178U 24045A   24094.19476103 -.00022878  00000+0 -54229-3 0  9998
2 59178  42.9991 153.2897 0001373 269.0540  91.0159 15.40686478  4841
STARLINK-31410          
1 59179U 24045B   24094.23349890  .00007541  00000+0  14222-3 0  9993
2 59179  42.9996 152.7146 0001218 263.9997  96.0723 15.48923686  4851
STARLINK-31395          
1 59180U 24045C   24093.52383220  .00001928  00000+0  40915-4 0  9993
2 59180  42.9994 156.8474 0001641 261.2312  98.8362 15.48910923  4749
STARLINK-31486          
1 59181U 24045D   24094.19035074  .00007219  00000+0  17996-3 0  9990
2 59181  42.9995 153.2567 0000954 285.2110  74.8641 15.40692909  4841
STARLINK-31411          
1 59182U 24045E   24094.25001157  .00006424  00000+0  16092-3 0  9996
2 59182  42.9993 152.8207 0001101 273.0329  95.6978 15.40699199  4851
STARLINK-31347          
1 59183U 24045F   24094.22511759 -.00005328  00000+0 -90386-4 0  9991
2 59183  43.0007 151.7591 0002535 287.9840  72.0743 15.48897010  4880
STARLINK-31382          
1 59184U 24045G   24093.52245829 -.00000693  00000+0 -64806-5 0  9995
2 59184  42.9985 156.8400 0001131 283.2116  76.8617 15.48904590  4744
STARLINK-31394          
1 59185U 24045H   24093.52210855 -.00001507  00000+0 -21220-4 0  9994
2 59185  43.0000 156.8354 0001310 263.0722  96.9989 15.48903585  4749
STARLINK-31403          
1 59186U 24045J   24093.45728448  .00000993  00000+0  24005-4 0  9999
2 59186  42.9999 157.2078 0001259 283.4151  76.6568 15.48917254  4675
STARLINK-31514          
1 59187U 24045K   24093.52144408  .00034183  00000+0  62099-3 0  9998
2 59187  42.9986 156.8299 0000860 266.3122  93.7639 15.48932522  4749
STARLINK-31478          
1 59188U 24045L   24094.16592600  .00014096  00000+0  26046-3 0  9994
2 59188  42.9989 153.0652 0000678 259.7882 100.2901 15.48912626  4841
STARLINK-31498          
1 59189U 24045M   24093.52076456 -.00014364  00000+0 -25460-3 0  9999
2 59189  42.9992 156.8245 0000373 314.5890  45.4939 15.48864088  4744
STARLINK-31563          
1 59190U 24045N   24093.59570199  .00127088  00000+0  30062-2 0  9990
2 59190  42.9986 156.5297 0000840 303.7506  56.3271 15.40629618  4757
STARLINK-31551          
1 59191U 24045P   24093.91668981  .00040765  00000+0  97890-3 0  9993
2 59191  42.9997 154.7078 0001820 290.7125  39.4846 15.40669018  4879
STARLINK-31536          
1 59192U 24045Q   24091.68616809 -.00299547  00000+0 -53900-2 0  9997
2 59192  42.9986 167.1296 0001692 328.4514  31.6244 15.50094118  4472
STARLINK-31548          
1 59193U 24045R   24093.51936851  .00006277  00000+0  11943-3 0  9990
2 59193  42.9999 156.8123 0001268 266.9292  93.1423 15.48916635  4745
STARLINK-31542          
1 59194U 24045S   24094.00002315  .00037836  00000+0  90901-3 0  9991
2 59194  42.9995 154.3172 0001049 131.0097 264.6274 15.40684334  4818
STARLINK-31554          
1 59195U 24045T   24093.51867920  .00009703  00000+0  18121-3 0  9994
2 59195  42.9999 156.8071 0001413 275.8204  84.2494 15.48922329  4749
STARLINK-31558          
1 59196U 24045U   24094.00002315  .00063244  00000+0  15101-2 0  9993
2 59196  42.9994 154.2871 0000804 248.3071 159.7709 15.40672988  4781
STARLINK-31275          
1 59197U 24045V   24094.22733031  .00001371  00000+0  30833-4 0  9998
2 59197  42.9996 152.6621 0001106 265.2123  94.8610 15.48902765  4856
STARLINK-31590          
1 59198U 24045W   24093.51765031  .00003987  00000+0  78105-4 0  9994
2 59198  42.9989 156.7975 0001387 271.5930  88.4771 15.48913993  4743
STARLINK-31567          
1 59199U 24045X   24093.91668981 -.00034847  00000+0 -83029-3 0  9996
2 59199  42.9999 154.5851 0001987 276.3032 103.6693 15.40714774  4871
STARLINK-31503          
1 59200U 24045Y   24093.91668981  .00040803  00000+0  97977-3 0  9993
2 59200  43.0000 154.5256 0002141 281.1499 123.7170 15.40669803  4877
STARLINK-31603          
1 59201U 24046A   24094.25001157  .00136915  00000+0  30399-2 0  9993
2 59201  53.1587 206.6391 0001657 117.8629  43.5148 15.42743876  4611
STARLINK-31602          
1 59202U 24046B   24094.25001157 -.00007624  00000+0 -13374-3 0  9995
2 59202  53.1586 206.6104 0000844  68.5810 107.6268 15.48337097  4620
STARLINK-31577          
1 59203U 24046C   24091.05867873 -.00231150  00000+0 -34703-2 0  9997
2 59203  53.1592 221.8842 0002320  77.5724 282.5547 15.55065052  4340
STARLINK-31522          
1 59204U 24046D   24094.25001157  .00019101  00000+0  43745-3 0  9993
2 59204  53.1588 206.6349 0001245 115.3198  47.9261 15.42827519  4616
STARLINK-31586          
1 59205U 24046E   24094.02375193  .00065257  00000+0  12116-2 0  9993
2 59205  53.1589 207.6779 0001186  52.7633 307.3484 15.48349139  4598
STARLINK-31247          
1 59206U 24046F   24093.91668981 -.00021130  00000+0 -38585-3 0  9994
2 59206  53.1587 208.1862 0000444 112.2037  12.7284 15.48343960  4728
STARLINK-31591          
1 59207U 24046G   24093.91668981 -.00020105  00000+0 -36675-3 0  9994
2 59207  53.1586 208.1779 0000976 110.1246  18.6745 15.48336533  4628
STARLINK-31576          
1 59208U 24046H   24094.25001157 -.02147252  00000+0 -48403-1 0  9994
2 59208  53.1589 206.5932 0001534 113.4821  70.8535 15.46338152  4614
STARLINK-31601          
1 59209U 24046J   24093.91668981 -.00015895  00000+0 -28800-3 0  9997
2 59209  53.1586 208.1739 0001046 111.9410  18.7754 15.48343634  4662
